OBJECT_NAME,OBJECT_ID,EPOCH,MEAN_MOTION,ECCENTRICITY,INCLINATION,RA_OF_ASC_NODE,ARG_OF_PERICENTER,MEAN_ANOMALY,EPHEMERIS_TYPE,CLASSIFICATION_TYPE,NORAD_CAT_ID,ELEMENT_SET_NO,REV_AT_EPOCH,BSTAR,MEAN_MOTION_DOT,MEAN_MOTION_DDOT
HAWK-5A,2022-057AB,2026-07-08T21:41:48.485760,15.52169718,.00039568,97.6624,350.1701,2.8161,357.3112,0,U,52757,999,22971,.21434928E-3,.12876E-3,0
HAWK-6B,2023-011A,2026-07-08T13:25:50.323008,15.23115098,.00031879,40.4969,227.3973,204.0869,155.9792,0,U,55324,999,19110,.11223574E-3,.2509E-4,0
HAWK-6C,2023-011C,2026-07-08T13:24:56.583072,15.23116126,.00036014,40.4958,224.2363,192.3614,167.7107,0,U,55326,999,19111,.12466397E-3,.2808E-4,0
HAWK-6A,2023-011D,2026-07-08T13:24:59.411808,15.23117158,.00031384,40.4967,225.8631,190.2605,169.8140,0,U,55327,999,19111,.12322566E-3,.2774E-4,0
HAWK-7A,2023-054P,2026-07-08T22:12:15.912288,15.27588795,.00021288,97.2676,76.7099,1.2836,358.8408,0,U,56191,999,18034,.13363159E-3,.3532E-4,0
HAWK-7B,2023-054R,2026-07-08T15:54:50.769504,15.27590369,.0002012,97.2701,74.7258,28.4560,331.6789,0,U,56193,999,18030,.14408905E-3,.3815E-4,0
HAWK-7C,2023-054Y,2026-07-08T15:54:41.230080,15.27588842,.00016687,97.2678,75.4879,14.6785,345.4503,0,U,56200,999,18030,.14309073E-3,.3788E-4,0
